STARLINK-11175 [DTC]    
1 60191U 24124J   26200.11785479  .00002830  00000+0  28203-4 0  9993
2 60191  53.1573 233.5571 0001077  86.8152 273.2989 15.69711836117178
STARLINK-11173 [DTC]    
1 60192U 24124K   26200.24029397 -.00000438  00000+0  12450-5 0  9999
2 60192  53.1588 232.8985 0001097  66.8921 293.2212 15.69699506117192
STARLINK-11172 [DTC]    
1 60193U 24124L   26199.53501494  .00001316  00000+0  15717-4 0  9995
2 60193  53.1592 236.3195 0001109  79.6497 280.4646 15.69709203117087
STARLINK-11152 [DTC]    
1 60194U 24124M   26200.29415322 -.00002163  00000+0 -13004-4 0  9996
2 60194  53.1592 232.5194 0001045  68.3130 291.7999 15.69709184118392
STARLINK-11193 [DTC]    
1 60195U 24124N   26199.52520628  .00001215  00000+0  14887-4 0  9991
2 60195  53.1595 236.2513 0001177  88.2480 271.8673 15.69705014117088
STARLINK-31869          
1 60196U 24124P   26199.94481518  .00001353  00000+0  55331-4 0  9994
2 60196  53.1591  71.9693 0001312  94.3482 265.7670 15.31707501114403
STARLINK-32023          
1 60197U 24124Q   26200.01524222  .00000805  00000+0  34976-4 0  9999
2 60197  53.1594  70.2781 0001228  92.3488 267.7656 15.34396151114434
STARLINK-32046          
1 60198U 24124R   26200.02873702  .00000023  00000+0  12518-4 0  9991
2 60198  53.1601  71.7772 0001242  95.6387 264.4756 15.31707217115645
STARLINK-32049          
1 60199U 24124S   26200.09300060  .00001432  00000+0  53518-4 0  9991
2 60199  53.1593  70.0514 0001258  89.2013 270.9133 15.34394939115674
STARLINK-32002          
1 60200U 24124T   26200.01473294  .00000155  00000+0  16767-4 0  9992
2 60200  53.1604  71.6900 0001333  92.9236 267.1918 15.31704078114414
STARLINK-32020          
1 60201U 24124U   26200.01939914  .00000165  00000+0  17078-4 0  9996
2 60201  53.1604  71.7142 0001352  93.2120 266.9037 15.31703826114410
STARLINK-32041          
1 60202U 24124V   26200.02406661  .00000278  00000+0  20712-4 0  9990
2 60202  53.1602  71.7448 0001293  90.9454 269.1696 15.31702721115618
2024-125A               
1 60203U 24125A   26200.07944692  .00054681  00000+0  44887-3 0  9993
2 60203  97.2207  59.4926 0010148  93.2705 266.9719 15.70237751114638
R5-S4                   
1 60206U 24125D   26200.30119578  .00008729  00000+0  19261-3 0  9999
2 60206  97.2366  51.3400 0017644 112.3841 247.9279 15.43961030114080
R5-S2                   
1 60207U 24125E   26200.09860096  .00009680  00000+0  19993-3 0  9993
2 60207  97.2339  51.9305 0017072 111.8122 248.4946 15.45889071114119
MESAT1                  
1 60209U 24125G   26200.13975240  .00043692  00000+0  41343-3 0  9993
2 60209  97.2237  58.4287 0010776 100.3413 259.9063 15.66787156114569
TIANHUI 5C              
1 60211U 24126A   26199.57934083  .00000157  00000+0  23216-4 0  9991
2 60211  97.8218 206.6993 0002116  93.3753 266.7705 14.87581807110556
TIANHUI 5D              
1 60212U 24126B   26199.57933970  .00000163  00000+0  23928-4 0  9993
2 60212  97.8218 206.6918 0001566  89.6666 270.4730 14.87581922110562
TURKSAT 6A              
1 60233U 24127A   26200.20094711  .00000000  00000+0  00000+0 0  9992
2 60233   0.0174 182.0327 0003105 343.5032 245.7695  1.00271889  7337
GRBBETA                 
1 60237U 24128C   26200.14111280  .00001698  00000+0  12636-3 0  9997
2 60237  61.9889 104.1391 0036551 141.5469 218.8240 15.06823469111080
ISTSAT-1                
1 60238U 24128D   26200.26415883  .00003102  00000+0  19073-3 0  9991
2 60238  61.9882  92.6819 0034280 137.2405 223.1367 15.11951690111318
OOV-CUBE (TUBSAT-30)    
1 60240U 24128F   26200.25910843  .00000930  00000+0  83634-4 0  9990
2 60240  61.9942 113.7300 0040595 140.9003 219.5034 15.02883153110934
CURIUM ONE              
1 60242U 24128H   26200.16331012  .00003567  00000+0  21149-3 0  9998
2 60242  61.9780  92.4853 0035807 137.6404 222.7467 15.12895786111292
ROBUSTA-3A (MEDITERRAN*)
1 60243U 24128J   26200.21257157  .00003658  00000+0  22147-3 0  9992
2 60243  61.9861  94.9607 0037575 134.4225 225.9956 15.12018603111267
CATSAT                  
1 60246U 24125J   26200.13430748  .00047164  00000+0  52272-3 0  9994
2 60246  97.2056  53.1405 0019850  69.4604 290.8782 15.62589242112373
GAOFEN-11 05            
1 60249U 24130A   26200.29940066  .00002645  00000+0  11363-3 0  9990
2 60249  97.3985 278.1675 0001710 309.1754  50.9331 15.23558202 90359
STARLINK-32138          
1 60255U 24131A   26200.26559059 -.00000233  00000+0  42685-5 0  9998
2 60255  53.1605 160.5587 0001254  85.1164 274.9981 15.31700776112178
STARLINK-32212          
1 60256U 24131B   26200.19765962  .00000508  00000+0  26174-4 0  9991
2 60256  53.1601 161.5634 0001317  86.1294 273.9860 15.34390299111851
STARLINK-32166          
1 60257U 24131C   26200.25002315  .00042261  00000+0  12569-2 0  9998
2 60257  53.1608 161.6068 0001530  57.2632  81.1145 15.34348225  5874
STARLINK-32200          
1 60258U 24131D   26200.25002315  .00027069  00000+0  81003-3 0  9998
2 60258  53.1606 161.4477 0001204  76.6650 143.0622 15.34374508  5868
