OBJECT_NAME,OBJECT_ID,EPOCH,MEAN_MOTION,ECCENTRICITY,INCLINATION,RA_OF_ASC_NODE,ARG_OF_PERICENTER,MEAN_ANOMALY,EPHEMERIS_TYPE,CLASSIFICATION_TYPE,NORAD_CAT_ID,ELEMENT_SET_NO,REV_AT_EPOCH,BSTAR,MEAN_MOTION_DOT,MEAN_MOTION_DDOT
STARLINK-11175 [DTC],2024-124J,2026-07-19T02:49:42.653856,15.69711836,.00010775,53.1573,233.5571,86.8152,273.2989,0,U,60191,999,11717,.28202963E-4,.283E-4,0
STARLINK-11173 [DTC],2024-124K,2026-07-19T05:46:01.399008,15.69699506,.00010974,53.1588,232.8985,66.8921,293.2212,0,U,60192,999,11719,.1244985E-5,-.438E-5,0
STARLINK-11172 [DTC],2024-124L,2026-07-18T12:50:25.290816,15.69709203,.0001109,53.1592,236.3195,79.6497,280.4646,0,U,60193,999,11708,.15717E-4,.1316E-4,0
STARLINK-11152 [DTC],2024-124M,2026-07-19T07:03:34.838208,15.69709184,.0001045,53.1592,232.5194,68.3130,291.7999,0,U,60194,999,11839,-.13004311E-4,-.2163E-4,0
STARLINK-11193 [DTC],2024-124N,2026-07-18T12:36:17.822592,15.69705014,.00011773,53.1595,236.2513,88.2480,271.8673,0,U,60195,999,11708,.1488732E-4,.1215E-4,0
STARLINK-31869,2024-124P,2026-07-18T22:40:32.031552,15.31707501,.00013128,53.1591,71.9693,94.3482,265.7670,0,U,60196,999,11440,.55331354E-4,.1353E-4,0
STARLINK-32023,2024-124Q,2026-07-19T00:21:56.927808,15.34396151,.00012285,53.1594,70.2781,92.3488,267.7656,0,U,60197,999,11443,.34976022E-4,.805E-5,0
STARLINK-32046,2024-124R,2026-07-19T00:41:22.878528,15.31707217,.0001242,53.1601,71.7772,95.6387,264.4756,0,U,60198,999,11564,.12518251E-4,.23E-6,0
STARLINK-32049,2024-124S,2026-07-19T02:13:55.251840,15.34394939,.00012589,53.1593,70.0514,89.2013,270.9133,0,U,60199,999,11567,.53518315E-4,.1432E-4,0
STARLINK-32002,2024-124T,2026-07-19T00:21:12.926016,15.31704078,.00013335,53.1604,71.6900,92.9236,267.1918,0,U,60200,999,11441,.16766591E-4,.155E-5,0
STARLINK-32020,2024-124U,2026-07-19T00:27:56.085696,15.31703826,.00013528,53.1604,71.7142,93.2120,266.9037,0,U,60201,999,11441,.17077946E-4,.165E-5,0
STARLINK-32041,2024-124V,2026-07-19T00:34:39.355104,15.31702721,.00012937,53.1602,71.7448,90.9454,269.1696,0,U,60202,999,11561,.20712454E-4,.278E-5,0
2024-125A,2024-125A,2026-07-19T01:54:24.213888,15.70237751,.0010148,97.2207,59.4926,93.2705,266.9719,0,U,60203,999,11463,.44886997E-3,.54681E-3,0
R5-S4,2024-125D,2026-07-19T07:13:43.315392,15.43961030,.00176446,97.2366,51.3400,112.3841,247.9279,0,U,60206,999,11408,.19261225E-3,.8729E-4,0
R5-S2,2024-125E,2026-07-19T02:21:59.122944,15.45889071,.00170725,97.2339,51.9305,111.8122,248.4946,0,U,60207,999,11411,.1999344E-3,.968E-4,0
MESAT1,2024-125G,2026-07-19T03:21:14.607360,15.66787156,.0010776,97.2237,58.4287,100.3413,259.9063,0,U,60209,999,11456,.41343067E-3,.43692E-3,0
TIANHUI 5C,2024-126A,2026-07-18T13:54:15.047712,14.87581807,.0002116,97.8218,206.6993,93.3753,266.7705,0,U,60211,999,11055,.23216E-4,.157E-5,0
TIANHUI 5D,2024-126B,2026-07-18T13:54:14.950080,14.87581922,.0001566,97.8218,206.6918,89.6666,270.4730,0,U,60212,999,11056,.23928E-4,.163E-5,0
TURKSAT 6A,2024-127A,2026-07-19T04:49:21.830304,1.00271889,.00031055,0.0174,182.0327,343.5032,245.7695,0,U,60233,999,733,0,0,0
GRBBETA,2024-128C,2026-07-19T03:23:12.145920,15.06823469,.00365518,61.9889,104.1391,141.5469,218.8240,0,U,60237,999,11108,.12636319E-3,.1698E-4,0
ISTSAT-1,2024-128D,2026-07-19T06:20:23.322912,15.11951690,.003428,61.9882,92.6819,137.2405,223.1367,0,U,60238,999,11131,.19072573E-3,.3102E-4,0
OOV-CUBE (TUBSAT-30),2024-128F,2026-07-19T06:13:06.968352,15.02883153,.00405956,61.9942,113.7300,140.9003,219.5034,0,U,60240,999,11093,.83634225E-4,.93E-5,0
CURIUM ONE,2024-128H,2026-07-19T03:55:09.994368,15.12895786,.00358071,61.9780,92.4853,137.6404,222.7467,0,U,60242,999,11129,.2114928E-3,.3567E-4,0
ROBUSTA-3A (MEDITERRANEE),2024-128J,2026-07-19T05:06:06.183648,15.12018603,.00375759,61.9861,94.9607,134.4225,225.9956,0,U,60243,999,11126,.22147173E-3,.3658E-4,0
CATSAT,2024-125J,2026-07-19T03:13:24.166272,15.62589242,.00198504,97.2056,53.1405,69.4604,290.8782,0,U,60246,999,11237,.52271649E-3,.47164E-3,0
GAOFEN-11 05,2024-130A,2026-07-19T07:11:08.217024,15.23558202,.00017104,97.3985,278.1675,309.1754,50.9331,0,U,60249,999,9035,.11363184E-3,.2645E-4,0
STARLINK-32138,2024-131A,2026-07-19T06:22:27.026976,15.31700776,.00012543,53.1605,160.5587,85.1164,274.9981,0,U,60255,999,11217,.426846E-5,-.233E-5,0
STARLINK-32212,2024-131B,2026-07-19T04:44:37.791168,15.34390299,.00013171,53.1601,161.5634,86.1294,273.9860,0,U,60256,999,11185,.26174216E-4,.508E-5,0
STARLINK-32166,2024-131C,2026-07-19T06:00:02.000160,15.34348225,.00015303,53.1608,161.6068,57.2632,81.1145,0,U,60257,999,587,.12569231E-2,.42261E-3,0
STARLINK-32200,2024-131D,2026-07-19T06:00:02.000160,15.34374508,.0001204,53.1606,161.4477,76.6650,143.0622,0,U,60258,999,586,.81003243E-3,.27069E-3,0
